satname,norad_id,inclination_deg,eccentricity,mean_motion_rev_per_day,perigee_km,apogee_km,l1,l2
STARLINK-1167,45071,53.0541,0.0001435,15.0640478,546.2031225496685,548.1906933812543,1 45071U 20006AD  25288.75539339  .00010946  00000+0  75247-3 0  9991,2 45071  53.0541 197.2562 0001435  81.5589 278.5562 15.06404780314893
STARLINK-1168,45072,53.0543,0.0001397,15.06401946,546.2381233746282,548.1730640953174,1 45072U 20006AE  25288.75907712  .00003893  00000+0  28007-3 0  9991,2 45072  53.0543 197.2376 0001397  83.7497 276.3652 15.06401946314895
STARLINK-1172,45074,53.0544,0.0001544,15.06406224,546.1232114683025,548.2617532124495,1 45074U 20006AG  25288.77013807  .00014682  00000+0  10024-2 0  9995,2 45074  53.0544 197.1902 0001544  86.8344 273.2822 15.06406224314890
STARLINK-1153,45080,53.052,0.0001354,15.06381082,546.3318394449361,548.20723953583,1 45080U 20006AN  25288.48264426  .00020708  00000+0  14058-2 0  9992,2 45080  53.0520 198.4795 0001354  97.7630 262.3513 15.06381082314859
STARLINK-1151,45081,53.0544,0.0003027,15.06382766,545.1680591725317,549.3606971668751,1 45081U 20006AP  25288.46790557  .00000747  00000+0  69118-4 0  9990,2 45081  53.0544 198.6196 0003027  94.1910 265.9425 15.06382766314855
STARLINK-1190,45083,53.0439,0.0006296,15.82154926,320.1278909856874,328.56765981487115,1 45083U 20006AR  25288.91672454  .00202615  00000+0  94715-3 0  9995,2 45083  53.0439 156.2054 0006296 135.1619 338.8295 15.82154926  5992
STARLINK-1173,45084,53.0376,0.0001745,16.00104368,272.9685990898661,275.29024007029966,1 45084U 20006AS  25288.91672454  .00473364  10809-3  90183-3 0  9994,2 45084  53.0376 117.7172 0001745 329.9514  99.2270 16.00104368  6052
STARLINK-1185,45087,53.0576,0.0005911,15.0650057,542.8099511740038,550.9967338669312,1 45087U 20006AV  25288.70929818  .00053084  00000+0  35453-2 0  9992,2 45087  53.0576 177.4596 0005911 105.9186 254.2455 15.06500570315170
STARLINK-1183,45088,53.0529,0.000124,15.06389967,546.3835607747606,548.1010548430968,1 45088U 20006AW  25288.13431230  .00000772  00000+0  70720-4 0  9990,2 45088  53.0529 180.0413 0001240  79.4866 280.6262 15.06389967315082
STARLINK-1176,45090,53.0433,0.0003608,15.96074957,282.9166355612033,287.72498671772155,1 45090U 20006AY  25288.91672454  .00488341  10887-3  11647-2 0  9995,2 45090  53.0433 116.0060 0003608 321.3271 357.7630 15.96074957  6042
STARLINK-1142,45093,53.0351,0.0003128,15.56256056,396.3841522877792,400.6236188257835,1 45093U 20006BB  25288.91672454  .00151155  00000+0  20809-2 0  9990,2 45093  53.0351 115.6348 0003128 186.1752  28.6041 15.56256056  5920
STARLINK-1152,45096,53.0511,0.0008457,15.22659867,492.0064030361209,503.6363990756654,1 45096U 20006BE  25288.64824258  .00015997  00000+0  69048-3 0  9996,2 45096  53.0511 161.8259 0008457 118.0550 242.1302 15.22659867315382
STARLINK-1184,45098,53.0518,0.0002606,15.06425481,545.3287379612566,548.9381889268052,1 45098U 20006BG  25288.67981170  .00009375  00000+0  64697-3 0  9996,2 45098  53.0518 177.5941 0002606  91.2701 268.8587 15.06425481315164
STARLINK-1193,45100,53.053,0.0001344,15.06367559,546.3802065058735,548.2417669247034,1 45100U 20006BJ  25288.14536136  .00002044  00000+0  15623-3 0  9991,2 45100  53.0530 179.9919 0001344  81.3342 278.7800 15.06367559315082
STARLINK-1143,45179,53.0539,0.0006823,15.38058407,447.19114144278865,456.511343398397,1 45179U 20012B   25288.35086060  .00096616  00000+0  25184-2 0  9993,2 45179  53.0539 306.5136 0006823 341.2412  18.8338 15.38058407313394
STARLINK-1202,45183,53.0555,0.0001393,15.06397293,546.2551523059883,548.184556725656,1 45183U 20012F   25288.40708996  .00014832  00000+0  10126-2 0  9993,2 45183  53.0555 338.8199 0001393 102.7714 257.3430 15.06397293312943
STARLINK-1216,45185,53.0548,0.0001374,15.06387081,546.2996047633414,548.2027014278119,1 45185U 20012H   25288.86413784  .00010751  00000+0  73980-3 0  9997,2 45185  53.0548 336.7658 0001374  76.6080 283.5062 15.06387081312955
STARLINK-1225,45187,53.0554,0.0001277,15.06390891,546.3551052760549,548.1238464279877,1 45187U 20012K   25288.55082571  .00010767  00000+0  74076-3 0  9995,2 45187  53.0554 338.1732 0001277  71.9037 288.2091 15.06390891312952
STARLINK-1230,45189,53.0552,0.0001542,15.06395905,546.1562178689828,548.2919992348616,1 45189U 20012M   25288.42181590  .00011949  00000+0  81983-3 0  9992,2 45189  53.0552 338.7534 0001542  95.4151 264.7014 15.06395905310167
STARLINK-1234,45190,53.0536,0.0001015,15.19037226,508.0500224335565,509.4480602999529,1 45190U 20012N   25288.91672454  .02027547  00000+0  85968-1 0  9990,2 45190  53.0536 296.2371 0001015  90.4033 127.2918 15.19037226  5831
STARLINK-1269,45197,53.0543,0.0001451,15.06399306,546.2088165647538,548.218553333525,1 45197U 20012V   25288.83095595  .00005727  00000+0  40307-3 0  9997,2 45197  53.0543 336.9186 0001451 103.6793 256.4358 15.06399306312971
STARLINK-1154,45198,53.0539,0.0001658,15.06393189,546.0842064990156,548.3806590029162,1 45198U 20012W   25288.82174095  .00002317  00000+0  17445-3 0  9999,2 45198  53.0539 316.9578 0001658 101.4594 258.6581 15.06393189313228
STARLINK-1199,45201,53.0555,0.0001471,15.0639977,546.1935439786757,548.2309817318073,1 45201U 20012Z   25288.50105815  .00002903  00000+0  21368-3 0  9993,2 45201  53.0555 318.3988 0001471 101.9984 258.1170 15.06399770313235
STARLINK-1209,45206,53.0539,0.0001869,15.15487304,518.2103749519993,520.7887114918567,1 45206U 20012AE  25288.91672454  .02151929  00000+0  10202+0 0  9997,2 45206  53.0539 296.3809 0001869  89.9915  33.7775 15.15487304  5832
STARLINK-1210,45207,53.0255,0.0013286,15.52236634,401.1783268937834,419.2162888166158,1 45207U 20012AF  25288.23616972  .00155280  00000+0  24658-2 0  9991,2 45207  53.0255 265.0072 0013286 359.0437   1.0544 15.52236634313966
STARLINK-1231,45212,53.0514,0.0004481,15.1093138,530.2612106677707,536.455292712335,1 45212U 20012AL  25288.77021529  .00036265  00000+0  21571-2 0  9996,2 45212  53.0514 316.1025 0004481 335.3942  24.6834 15.10931380313249
STARLINK-1271,45217,53.0539,0.0001369,15.06391804,546.2885939552634,548.184761268194,1 45217U 20012AR  25288.81805951  .00002414  00000+0  18092-3 0  9999,2 45217  53.0539 316.9731 0001369  97.1809 262.9336 15.06391804313284
STARLINK-1191,45222,53.0555,0.0001349,15.06395248,546.29189068697,548.160353657332,1 45222U 20012AW  25288.76090955 -.00001089  00000+0 -54234-4 0  9997,2 45222  53.0555 297.2290 0001349  93.4827 266.6316 15.06395248313551
STARLINK-1212,45223,53.0538,0.0001272,15.06393857,546.3494786810807,548.1112921439299,1 45223U 20012AX  25288.31500171  .00000143  00000+0  28509-4 0  9999,2 45223  53.0538 299.8867 0001272  75.9374 284.1757 15.06393857313488
STARLINK-1215,45225,53.0551,0.0001333,15.06398652,546.2925398537191,548.1388388807036,1 45225U 20012AZ  25288.73511353 -.00000177  00000+0  69999-5 0  9998,2 45225  53.0551 297.3431 0001333  86.6303 273.4838 15.06398652313506
STARLINK-1217,45226,53.0344,0.0002861,16.15298971,230.4553141473407,234.23783284809633,1 45226U 20012BA  25288.83832078  .01129031  88435-3  82263-3 0  9990,2 45226  53.0344 231.3463 0002861 193.9745 166.1212 16.15298971314395
STARLINK-1221,45227,53.0676,0.0001582,15.36103427,456.5635547476222,458.72639616465585,1 45227U 20012BB  25288.57778792  .00018545  00000+0  52922-3 0  9997,2 45227  53.0676 234.2221 0001582 289.8793  70.2039 15.36103427314367
STARLINK-1222,45228,53.0554,0.0001382,15.06398478,546.2591388376259,548.1733064683676,1 45228U 20012BC  25288.76829271  .00001181  00000+0  98170-4 0  9992,2 45228  53.0554 297.1944 0001382  84.8787 275.2360 15.06398478313448
STARLINK-1226,45229,53.0545,0.0001456,15.06390961,546.230926526302,548.2475960935944,1 45229U 20012BD  25288.73143584  .00000047  00000+0  22064-4 0  9995,2 45229  53.0545 297.3594 0001456  86.9285 273.1870 15.06390961313442
STARLINK-1227,45230,53.0553,0.0001487,15.06400445,546.1803949499463,548.239993205465,1 45230U 20012BE  25288.32966215 -.00000422  00000+0 -94058-5 0  9998,2 45230  53.0553 299.1638 0001487  88.0135 272.1024 15.06400445313509
STARLINK-1246,45235,53.0547,0.0001361,15.06390304,546.2987309579739,548.1838189244127,1 45235U 20012BK  25288.54345351  .00012294  00000+0  84303-3 0  9997,2 45235  53.0547 338.2050 0001361 105.7370 254.3769 15.06390304312980
STARLINK-1270,45237,53.0551,0.0001598,15.06398947,546.1081140182177,548.3214564487789,1 45237U 20012BM  25288.41443778 -.00000912  00000+0 -42304-4 0  9999,2 45237  53.0551 298.7898 0001598 111.5017 248.6143 15.06398947313504
STARLINK-1279,45360,53.0542,0.0001252,15.15658285,518.1172673163428,519.8443056100741,1 45360U 20019A   25288.91672454  .02092458  00000+0  98984-1 0  9991,2 45360  53.0542  66.3781 0001252 110.0574  38.9503 15.15658285  5838
STARLINK-1301,45361,53.0533,0.0001419,15.17310224,512.9958276394073,514.9518086896032,1 45361U 20019B   25288.91672454  .02089331  00000+0  94332-1 0  9991,2 45361  53.0533  76.3196 0001419  76.8289 167.3035 15.17310224  5799
STARLINK-1306,45362,53.0477,0.000605,15.63982463,372.0804137315099,380.25312129019767,1 45362U 20019C   25288.91672454  .00101995  00000+0  10531-2 0  9991,2 45362  53.0477  70.5601 0006050 204.0963 279.6449 15.63982463  5892
STARLINK-1262,45366,53.0538,0.0001356,15.06409683,546.2428078565745,548.1209543371278,1 45366U 20019G   25288.85674833 -.00000104  00000+0  11932-4 0  9990,2 45366  53.0538  96.7945 0001356  72.7212 287.3925 15.06409683307903
STARLINK-1273,45367,53.0535,0.0001305,15.0640042,546.3065128802418,548.1140285178944,1 45367U 20019H   25288.81251819 -.00000065  00000+0  14536-4 0  9991,2 45367  53.0535  96.9961 0001305  84.3253 275.7884 15.06400420307892
STARLINK-1276,45368,53.0539,0.0001327,15.06390569,546.3214651564604,548.1594603350723,1 45368U 20019J   25288.84937545 -.00001351  00000+0 -71846-4 0  9999,2 45368  53.0539  96.8316 0001327  92.4940 267.6201 15.06390569307904
